CCSDS_OMM_VERS = 2.0
CREATION_DATE  = 
ORIGINATOR     = 

OBJECT_NAME    = STARLINK-36040
OBJECT_ID      = 2025-270AC
CENTER_NAME    = EARTH
REF_FRAME      = TEME
TIME_SYSTEM    = UTC
MEAN_ELEMENT_THEORY = SGP/SGP4

EPOCH          = 2025-12-13T20:00:03.000384
MEAN_MOTION    = 15.50520492
ECCENTRICITY   = .0001412
INCLINATION    = 42.9997
RA_OF_ASC_NODE = 186.2140
ARG_OF_PERICENTER = 271.5940
MEAN_ANOMALY   = 159.4720

EPHEMERIS_TYPE = 0
CLASSIFICATION_TYPE = U
NORAD_CAT_ID   = 66614
ELEMENT_SET_NO = 999
REV_AT_EPOCH   = 441
BSTAR          = .83846804E-3
MEAN_MOTION_DOT = .49053E-3
MEAN_MOTION_DDOT = 0

CCSDS_OMM_VERS = 2.0
CREATION_DATE  = 
ORIGINATOR     = 

OBJECT_NAME    = STARLINK-35988
OBJECT_ID      = 2025-270AD
CENTER_NAME    = EARTH
REF_FRAME      = TEME
TIME_SYSTEM    = UTC
MEAN_ELEMENT_THEORY = SGP/SGP4

EPOCH          = 2025-12-13T20:00:03.000384
MEAN_MOTION    = 15.48240848
ECCENTRICITY   = .00014961
INCLINATION    = 42.9998
RA_OF_ASC_NODE = 186.2250
ARG_OF_PERICENTER = 277.1886
MEAN_ANOMALY   = 149.7814

EPHEMERIS_TYPE = 0
CLASSIFICATION_TYPE = U
NORAD_CAT_ID   = 66615
ELEMENT_SET_NO = 999
REV_AT_EPOCH   = 441
BSTAR          = -.43021939E-1
MEAN_MOTION_DOT = -.2066252E-1
MEAN_MOTION_DDOT = 0

CCSDS_OMM_VERS = 2.0
CREATION_DATE  = 
ORIGINATOR     = 

OBJECT_NAME    = STARLINK-35391
OBJECT_ID      = 2025-270AE
CENTER_NAME    = EARTH
REF_FRAME      = TEME
TIME_SYSTEM    = UTC
MEAN_ELEMENT_THEORY = SGP/SGP4

EPOCH          = 2025-12-13T20:00:03.000384
MEAN_MOTION    = 15.50518485
ECCENTRICITY   = .00015008
INCLINATION    = 42.9997
RA_OF_ASC_NODE = 186.2100
ARG_OF_PERICENTER = 267.8991
MEAN_ANOMALY   = 165.0824

EPHEMERIS_TYPE = 0
CLASSIFICATION_TYPE = U
NORAD_CAT_ID   = 66616
ELEMENT_SET_NO = 999
REV_AT_EPOCH   = 468
BSTAR          = .14422681E-2
MEAN_MOTION_DOT = .8501E-3
MEAN_MOTION_DDOT = 0

CCSDS_OMM_VERS = 2.0
CREATION_DATE  = 
ORIGINATOR     = 

OBJECT_NAME    = STARLINK-35940
OBJECT_ID      = 2025-271A
CENTER_NAME    = EARTH
REF_FRAME      = TEME
TIME_SYSTEM    = UTC
MEAN_ELEMENT_THEORY = SGP/SGP4

EPOCH          = 2025-12-13T20:00:03.000384
MEAN_MOTION    = 15.49345118
ECCENTRICITY   = .00007571
INCLINATION    = 53.1598
RA_OF_ASC_NODE = 182.0050
ARG_OF_PERICENTER = 100.4786
MEAN_ANOMALY   = 331.1592

EPHEMERIS_TYPE = 0
CLASSIFICATION_TYPE = U
NORAD_CAT_ID   = 66617
ELEMENT_SET_NO = 999
REV_AT_EPOCH   = 441
BSTAR          = -.40966632E-1
MEAN_MOTION_DOT = -.2033545E-1
MEAN_MOTION_DDOT = 0

CCSDS_OMM_VERS = 2.0
CREATION_DATE  = 
ORIGINATOR     = 

OBJECT_NAME    = STARLINK-35970
OBJECT_ID      = 2025-271B
CENTER_NAME    = EARTH
REF_FRAME      = TEME
TIME_SYSTEM    = UTC
MEAN_ELEMENT_THEORY = SGP/SGP4

EPOCH          = 2025-12-13T20:00:03.000384
MEAN_MOTION    = 15.49299793
ECCENTRICITY   = .00007164
INCLINATION    = 53.1598
RA_OF_ASC_NODE = 181.8923
ARG_OF_PERICENTER = 56.9092
MEAN_ANOMALY   = 67.9735

EPHEMERIS_TYPE = 0
CLASSIFICATION_TYPE = U
NORAD_CAT_ID   = 66618
ELEMENT_SET_NO = 999
REV_AT_EPOCH   = 441
BSTAR          = .12699112E-2
MEAN_MOTION_DOT = .70798E-3
MEAN_MOTION_DDOT = 0

CCSDS_OMM_VERS = 2.0
CREATION_DATE  = 
ORIGINATOR     = 

OBJECT_NAME    = STARLINK-35951
OBJECT_ID      = 2025-271C
CENTER_NAME    = EARTH
REF_FRAME      = TEME
TIME_SYSTEM    = UTC
MEAN_ELEMENT_THEORY = SGP/SGP4

EPOCH          = 2025-12-13T20:00:03.000384
MEAN_MOTION    = 15.49302284
ECCENTRICITY   = .00006858
INCLINATION    = 53.1600
RA_OF_ASC_NODE = 181.9880
ARG_OF_PERICENTER = 141.1889
MEAN_ANOMALY   = 298.0450

EPHEMERIS_TYPE = 0
CLASSIFICATION_TYPE = U
NORAD_CAT_ID   = 66619
ELEMENT_SET_NO = 999
REV_AT_EPOCH   = 441
BSTAR          = .97380146E-3
MEAN_MOTION_DOT = .54073E-3
MEAN_MOTION_DDOT = 0

CCSDS_OMM_VERS = 2.0
CREATION_DATE  = 
ORIGINATOR     = 

OBJECT_NAME    = STARLINK-35936
OBJECT_ID      = 2025-271D
CENTER_NAME    = EARTH
REF_FRAME      = TEME
TIME_SYSTEM    = UTC
MEAN_ELEMENT_THEORY = SGP/SGP4

EPOCH          = 2025-12-13T20:00:03.000384
MEAN_MOTION    = 15.49270829
ECCENTRICITY   = .00008607
INCLINATION    = 53.1601
RA_OF_ASC_NODE = 182.0009
ARG_OF_PERICENTER = 60.0226
MEAN_ANOMALY   = 13.5401

EPHEMERIS_TYPE = 0
CLASSIFICATION_TYPE = U
NORAD_CAT_ID   = 66620
ELEMENT_SET_NO = 999
REV_AT_EPOCH   = 441
BSTAR          = .10597279E-2
MEAN_MOTION_DOT = .58855E-3
MEAN_MOTION_DDOT = 0

CCSDS_OMM_VERS = 2.0
CREATION_DATE  = 
ORIGINATOR     = 

OBJECT_NAME    = STARLINK-35847
OBJECT_ID      = 2025-271E
CENTER_NAME    = EARTH
REF_FRAME      = TEME
TIME_SYSTEM    = UTC
MEAN_ELEMENT_THEORY = SGP/SGP4

EPOCH          = 2025-12-13T20:00:03.000384
MEAN_MOTION    = 15.49301055
ECCENTRICITY   = .00007351
INCLINATION    = 53.1600
RA_OF_ASC_NODE = 181.8847
ARG_OF_PERICENTER = 48.7293
MEAN_ANOMALY   = 79.6867

EPHEMERIS_TYPE = 0
CLASSIFICATION_TYPE = U
NORAD_CAT_ID   = 66621
ELEMENT_SET_NO = 999
REV_AT_EPOCH   = 441
BSTAR          = .11729941E-2
MEAN_MOTION_DOT = .65318E-3
MEAN_MOTION_DDOT = 0

CCSDS_OMM_VERS = 2.0
CREATION_DATE  = 
ORIGINATOR     = 

OBJECT_NAME    = STARLINK-35950
OBJECT_ID      = 2025-271F
CENTER_NAME    = EARTH
REF_FRAME      = TEME
TIME_SYSTEM    = UTC
MEAN_ELEMENT_THEORY = SGP/SGP4

EPOCH          = 2025-12-13T20:00:03.000384
MEAN_MOTION    = 15.49272615
ECCENTRICITY   = .00006887
INCLINATION    = 53.1598
RA_OF_ASC_NODE = 181.9849
ARG_OF_PERICENTER = 88.6479
MEAN_ANOMALY   = 352.5854

EPHEMERIS_TYPE = 0
CLASSIFICATION_TYPE = U
NORAD_CAT_ID   = 66622
ELEMENT_SET_NO = 999
REV_AT_EPOCH   = 441
BSTAR          = .10450063E-2
MEAN_MOTION_DOT = .58029E-3
MEAN_MOTION_DDOT = 0

CCSDS_OMM_VERS = 2.0
CREATION_DATE  = 
ORIGINATOR     = 

OBJECT_NAME    = STARLINK-35920
OBJECT_ID      = 2025-271G
CENTER_NAME    = EARTH
REF_FRAME      = TEME
TIME_SYSTEM    = UTC
MEAN_ELEMENT_THEORY = SGP/SGP4

EPOCH          = 2025-12-13T20:00:03.000384
MEAN_MOTION    = 15.49267756
ECCENTRICITY   = .0001276
INCLINATION    = 53.1600
RA_OF_ASC_NODE = 181.9759
ARG_OF_PERICENTER = 89.4181
MEAN_ANOMALY   = 355.6530

EPHEMERIS_TYPE = 0
CLASSIFICATION_TYPE = U
NORAD_CAT_ID   = 66623
ELEMENT_SET_NO = 999
REV_AT_EPOCH   = 441
BSTAR          = .11927687E-2
MEAN_MOTION_DOT = .66357E-3
MEAN_MOTION_DDOT = 0

CCSDS_OMM_VERS = 2.0
CREATION_DATE  = 
ORIGINATOR     = 

OBJECT_NAME    = STARLINK-35927
OBJECT_ID      = 2025-271H
CENTER_NAME    = EARTH
REF_FRAME      = TEME
TIME_SYSTEM    = UTC
MEAN_ELEMENT_THEORY = SGP/SGP4

EPOCH          = 2025-12-13T20:00:03.000384
MEAN_MOTION    = 15.49273360
ECCENTRICITY   = .00006487
INCLINATION    = 53.1599
RA_OF_ASC_NODE = 181.9807
ARG_OF_PERICENTER = 86.9012
MEAN_ANOMALY   = 356.2492

EPHEMERIS_TYPE = 0
CLASSIFICATION_TYPE = U
NORAD_CAT_ID   = 66624
ELEMENT_SET_NO = 999
REV_AT_EPOCH   = 441
BSTAR          = .88528085E-3
MEAN_MOTION_DOT = .49035E-3
MEAN_MOTION_DDOT = 0

CCSDS_OMM_VERS = 2.0
CREATION_DATE  = 
ORIGINATOR     = 

OBJECT_NAME    = STARLINK-35929
OBJECT_ID      = 2025-271J
CENTER_NAME    = EARTH
REF_FRAME      = TEME
TIME_SYSTEM    = UTC
MEAN_ELEMENT_THEORY = SGP/SGP4

EPOCH          = 2025-12-13T20:00:03.000384
MEAN_MOTION    = 15.49273365
ECCENTRICITY   = .00012071
INCLINATION    = 53.1601
RA_OF_ASC_NODE = 181.9719
ARG_OF_PERICENTER = 88.3617
MEAN_ANOMALY   = 358.6123

EPHEMERIS_TYPE = 0
CLASSIFICATION_TYPE = U
NORAD_CAT_ID   = 66625
ELEMENT_SET_NO = 999
REV_AT_EPOCH   = 441
BSTAR          = .91876086E-3
MEAN_MOTION_DOT = .50919E-3
MEAN_MOTION_DDOT = 0

