STARLINK-36040          
1 66614U 25270AC  25347.83336806  .00049053  00000+0  83847-3 0  9990
2 66614  42.9997 186.2140 0001412 271.5940 159.4720 15.50520492  4413
STARLINK-35988          
1 66615U 25270AD  25347.83336806 -.02066252  00000+0 -43022-1 0  9994
2 66615  42.9998 186.2250 0001496 277.1886 149.7814 15.48240848  4417
STARLINK-35391          
1 66616U 25270AE  25347.83336806  .00085010  00000+0  14423-2 0  9998
2 66616  42.9997 186.2100 0001500 267.8991 165.0824 15.50518485  4689
STARLINK-35940          
1 66617U 25271A   25347.83336806 -.02033545  00000+0 -40967-1 0  9991
2 66617  53.1598 182.0050 0000757 100.4786 331.1592 15.49345118  4414
STARLINK-35970          
1 66618U 25271B   25347.83336806  .00070798  00000+0  12699-2 0  9991
2 66618  53.1598 181.8923 0000716  56.9092  67.9735 15.49299793  4411
STARLINK-35951          
1 66619U 25271C   25347.83336806  .00054073  00000+0  97380-3 0  9991
2 66619  53.1600 181.9880 0000685 141.1889 298.0450 15.49302284  4416
STARLINK-35936          
1 66620U 25271D   25347.83336806  .00058855  00000+0  10597-2 0  9999
2 66620  53.1601 182.0009 0000860  60.0226  13.5401 15.49270829  4418
STARLINK-35847          
1 66621U 25271E   25347.83336806  .00065318  00000+0  11730-2 0  9992
2 66621  53.1600 181.8847 0000735  48.7293  79.6867 15.49301055  4418
STARLINK-35950          
1 66622U 25271F   25347.83336806  .00058029  00000+0  10450-2 0  9992
2 66622  53.1598 181.9849 0000688  88.6479 352.5854 15.49272615  4412
STARLINK-35920          
1 66623U 25271G   25347.83336806  .00066357  00000+0  11928-2 0  9997
2 66623  53.1600 181.9759 0001276  89.4181 355.6530 15.49267756  4415
STARLINK-35927          
1 66624U 25271H   25347.83336806  .00049035  00000+0  88528-3 0  9993
2 66624  53.1599 181.9807 0000648  86.9012 356.2492 15.49273360  4416
STARLINK-35929          
1 66625U 25271J   25347.83336806  .00050919  00000+0  91876-3 0  9997
2 66625  53.1601 181.9719 0001207  88.3617 358.6123 15.49273365  4414
